[{"OBJECT_NAME":"COSMOS 2576","OBJECT_ID":"2024-092A","EPOCH":"2026-03-09T19:49:29.705664","MEAN_MOTION":15.27760963,"ECCENTRICITY":0.0005946,"INCLINATION":97.4253,"RA_OF_ASC_NODE":186.0053,"ARG_OF_PERICENTER":159.7731,"MEAN_ANOMALY":200.3745,"EPHEMERIS_TYPE":0,"CLASSIFICATION_TYPE":"U","NORAD_CAT_ID":59773,"ELEMENT_SET_NO":999,"REV_AT_EPOCH":10127,"BSTAR":0.00056283,"MEAN_MOTION_DOT":0.00015211,"MEAN_MOTION_DDOT":0},{"OBJECT_NAME":"FLOCK 4G-14","OBJECT_ID":"2025-009BL","EPOCH":"2026-03-09T18:12:31.432032","MEAN_MOTION":15.27197201,"ECCENTRICITY":0.00030064,"INCLINATION":97.4064,"RA_OF_ASC_NODE":151.1836,"ARG_OF_PERICENTER":318.3639,"MEAN_ANOMALY":41.7371,"EPHEMERIS_TYPE":0,"CLASSIFICATION_TYPE":"U","NORAD_CAT_ID":62667,"ELEMENT_SET_NO":999,"REV_AT_EPOCH":6371,"BSTAR":0.00042675627,"MEAN_MOTION_DOT":0.0001131,"MEAN_MOTION_DDOT":0}]
